NORAD_CAT_ID,OBJECT_NAME,OBJECT_TYPE,EPOCH,MEAN_MOTION,ECCENTRICITY,INCLINATION,RA_OF_ASC_NODE,ARG_OF_PERICENTER,MEAN_ANOMALY,BSTAR,MEAN_MOTION_DOT,MEAN_MOTION_DDOT,TLE_LINE0,TLE_LINE1,TLE_LINE2,SEMIMAJOR_AXIS,PERIOD,APOGEE,PERIGEE,DECAYED
51747.0,STARLINK-3446,PAYLOAD,2023-07-16 15:42:51,15.08831128,0.0001061,53.219,340.358,76.6288,283.4823,0.00018734,2.694e-05,0.0,0 STARLINK-3446,1 51747U 22016AK  23197.65476521  .00002694  00000-0  18734-3 0  9990,2 51747  53.2190 340.3580 0001061  76.6288 283.4823 15.08831128 78703,6917.908,95.438,540.506,539.039,0.0
51747.0,STARLINK-3446,PAYLOAD,2023-07-17 15:33:38,15.08844909,9.83e-05,53.2178,335.8973,76.9767,283.1335,0.00013451,1.854e-05,0.0,0 STARLINK-3446,1 51747U 22016AK  23198.64836085  .00001854  00000-0  13451-3 0  9993,2 51747  53.2178 335.8973 0000983  76.9767 283.1335 15.08844909 78853,6917.865,95.437,540.41,539.05,0.0
51747.0,STARLINK-3446,PAYLOAD,2023-07-18 09:02:53,15.08842611,0.0001132,53.2188,332.6269,85.3289,274.7832,3.9373e-05,3.39e-06,0.0,0 STARLINK-3446,1 51747U 22016AK  23199.37700394  .00000339  00000-0  39373-4 0  9996,2 51747  53.2188 332.6269 0001132  85.3289 274.7832 15.08842611 78965,6917.872,95.437,540.521,538.954,0.0
51747.0,STARLINK-3446,PAYLOAD,2023-07-19 08:53:40,15.08831431,0.0001261,53.2198,328.1653,110.7927,249.32,-2.5178e-05,-6.88e-06,0.0,0 STARLINK-3446,1 51747U 22016AK  23200.37061182 -.00000688  00000-0 -25178-4 0  9991,2 51747  53.2198 328.1653 0001261 110.7927 249.3200 15.08831431 79111,6917.907,95.438,540.644,538.899,0.0
51747.0,STARLINK-3446,PAYLOAD,2023-07-20 13:30:36,15.08843665,0.0001171,53.2188,322.8133,101.0293,259.083,8.1782e-05,1.014e-05,0.0,0 STARLINK-3446,1 51747U 22016AK  23201.56292526  .00001014  00000-0  81782-4 0  9996,2 51747  53.2188 322.8133 0001171 101.0293 259.0830 15.08843665 79291,6917.869,95.437,540.544,538.924,0.0
51747.0,STARLINK-3446,PAYLOAD,2023-07-21 08:35:14,15.08836956,0.0001177,53.2194,319.2456,106.3936,253.7185,0.00016024,2.263e-05,0.0,0 STARLINK-3446,1 51747U 22016AK  23202.35780763  .00002263  00000-0  16024-3 0  9992,2 51747  53.2194 319.2456 0001177 106.3936 253.7185 15.08836956 79417,6917.89,95.438,540.569,538.94,0.0
51747.0,STARLINK-3446,PAYLOAD,2023-07-24 06:32:13,15.08816077,0.0001272,53.2192,306.1607,86.22,273.8937,0.0003604,5.449e-05,0.0,0 STARLINK-3446,1 51747U 22016AK  23205.27237673  .00005449  00000-0  36040-3 0  9992,2 51747  53.2192 306.1607 0001272  86.2200 273.8937 15.08816077 78727,6917.954,95.439,540.698,538.939,0.0
51747.0,STARLINK-3446,PAYLOAD,2023-07-25 11:09:09,15.08834557,0.0001274,53.2168,300.8068,110.0373,250.0757,5.4644e-05,5.82e-06,0.0,0 STARLINK-3446,1 51747U 22016AK  23206.46469561  .00000582  00000-0  54644-4 0  9991,2 51747  53.2168 300.8068 0001274 110.0373 250.0757 15.08834557 78901,6917.897,95.438,540.643,538.881,0.0
51747.0,STARLINK-3446,PAYLOAD,2023-07-26 06:13:46,15.08889533,8.2e-05,53.2175,297.2396,101.8931,258.2153,-0.00059119,-9.697e-05,0.0,0 STARLINK-3446,1 51747U 22016AK  23207.25956697 -.00009697  00000-0 -59119-3 0  9999,2 51747  53.2175 297.2396 0000820 101.8931 258.2153 15.08889533 79024,6917.729,95.434,540.161,539.027,0.0
51747.0,STARLINK-3446,PAYLOAD,2023-07-26 09:24:35,15.08716714,0.0002229,53.2171,296.6464,84.7266,275.398,0.0017533,0.00027632,0.0,0 STARLINK-3446,1 51747U 22016AK  23207.39207430  .00027632  00000-0  17533-2 0  9998,2 51747  53.2171 296.6464 0002229  84.7266 275.3980 15.08716714 79044,6918.257,95.445,541.664,538.58,0.0
51747.0,STARLINK-3446,PAYLOAD,2023-07-26 10:59:58,15.08720684,0.0002258,53.2178,296.3493,87.4645,272.6606,0.0017447,0.00027498,0.0,0 STARLINK-3446,1 51747U 22016AK  23207.45831687  .00027498  00000-0  17447-2 0  9996,2 51747  53.2178 296.3493 0002258  87.4645 272.6606 15.08720684 80186,6918.245,95.445,541.672,538.548,0.0
51747.0,STARLINK-3446,PAYLOAD,2023-07-27 06:04:33,15.08832991,0.0001129,53.2185,292.7811,89.1299,270.9823,0.00017188,2.448e-05,0.0,0 STARLINK-3446,1 51747U 22016AK  23208.25317098  .00002448  00000-0  17188-3 0  9991,2 51747  53.2185 292.7811 0001129  89.1299 270.9823 15.08832991 80309,6917.902,95.438,540.548,538.986,0.0
51747.0,STARLINK-3446,PAYLOAD,2023-07-27 14:01:29,15.08841589,0.0001051,53.2172,291.2914,101.859,258.252,6.0079e-05,6.69e-06,0.0,0 STARLINK-3446,1 51747U 22016AK  23208.58436860  .00000669  00000-0  60079-4 0  9997,2 51747  53.2172 291.2914 0001051 101.8590 258.2520 15.08841589 79228,6917.876,95.437,540.468,539.013,0.0
51747.0,STARLINK-3446,PAYLOAD,2023-07-27 17:12:15,15.08844071,0.0001039,53.2161,290.6976,81.1455,278.9655,9.9304e-05,1.293e-05,0.0,0 STARLINK-3446,1 51747U 22016AK  23208.71684642  .00001293  00000-0  99304-4 0  9992,2 51747  53.2161 290.6976 0001039  81.1455 278.9655 15.08844071 80378,6917.868,95.437,540.452,539.014,0.0
51747.0,STARLINK-3446,PAYLOAD,2023-07-27 20:23:03,15.0882296,0.0001201,53.2172,290.1066,84.5096,275.6033,-0.00010824,-2.009e-05,0.0,0 STARLINK-3446,1 51747U 22016AK  23208.84934655 -.00002009  00000-0 -10824-3 0  9995,2 51747  53.2172 290.1066 0001201  84.5096 275.6033 15.08822960 79267,6917.932,95.439,540.628,538.967,0.0
51747.0,STARLINK-3446,PAYLOAD,2023-07-27 21:58:26,15.08821552,0.0001257,53.2182,289.8078,96.0572,264.0563,-0.00010259,-1.919e-05,0.0,0 STARLINK-3446,1 51747U 22016AK  23208.91558715 -.00001919  00000-0 -10259-3 0  9993,2 51747  53.2182 289.8078 0001257  96.0572 264.0563 15.08821552 80408,6917.937,95.439,540.671,538.932,0.0
51747.0,STARLINK-3446,PAYLOAD,2023-07-28 05:55:22,15.08829384,0.0001017,53.2163,288.3194,88.3171,271.7938,-8.9186e-05,-1.706e-05,0.0,0 STARLINK-3446,1 51747U 22016AK  23209.24678404 -.00001706  00000-0 -89186-4 0  9998,2 51747  53.2163 288.3194 0001017  88.3171 271.7938 15.08829384 80450,6917.913,95.438,540.481,539.074,0.0
51747.0,STARLINK-3446,PAYLOAD,2023-07-28 13:52:17,15.08836301,0.0001141,53.2174,286.833,90.6213,269.491,-5.5052e-05,-1.164e-05,0.0,0 STARLINK-3446,1 51747U 22016AK  23209.57797991 -.00001164  00000-0 -55052-4 0  9990,2 51747  53.2174 286.8330 0001141  90.6213 269.4910 15.08836301 79378,6917.892,95.438,540.546,538.967,0.0
51747.0,STARLINK-3446,PAYLOAD,2023-07-29 10:32:17,15.08848517,0.0001674,53.2182,282.9676,108.2977,251.8198,-6.5708e-05,-1.334e-05,0.0,0 STARLINK-3446,1 51747U 22016AK  23210.43909499 -.00001334  00000-0 -65708-4 0  9993,2 51747  53.2182 282.9676 0001674 108.2977 251.8198 15.08848517 80637,6917.854,95.437,540.877,538.561,0.0
51747.0,STARLINK-3446,PAYLOAD,2023-07-30 10:23:05,15.08832991,0.0001161,53.2167,278.5071,94.1787,265.9338,0.0001107,1.474e-05,0.0,0 STARLINK-3446,1 51747U 22016AK  23211.43270524  .00001474  00000-0  11070-3 0  9999,2 51747  53.2167 278.5071 0001161  94.1787 265.9338 15.08832991 80780,6917.902,95.438,540.57,538.964,0.0
51747.0,STARLINK-3446,PAYLOAD,2023-07-30 21:30:47,15.08841246,0.0001186,53.2167,276.4248,87.578,272.5348,0.00012011,1.624e-05,0.0,0 STARLINK-3446,1 51747U 22016AK  23211.89638073  .00001624  00000-0  12011-3 0  9999,2 51747  53.2167 276.4248 0001186  87.5780 272.5348 15.08841246 80855,6917.877,95.437,540.562,538.921,0.0
51747.0,STARLINK-3446,PAYLOAD,2023-08-01 10:04:39,15.08841754,0.0001361,53.2176,269.5855,87.2118,272.903,7.7514e-05,9.46e-06,0.0,0 STARLINK-3446,1 51747U 22016AK  23213.41990164  .00000946  00000-0  77514-4 0  9997,2 51747  53.2176 269.5855 0001361  87.2118 272.9030 15.08841754 81081,6917.875,95.437,540.682,538.799,0.0
51747.0,STARLINK-3446,PAYLOAD,2023-08-02 13:06:12,15.08842984,0.0001277,53.217,264.5297,90.2001,269.9138,3.5162e-05,2.72e-06,0.0,0 STARLINK-3446,1 51747U 22016AK  23214.54598056  .00000272  00000-0  35162-4 0  9991,2 51747  53.2170 264.5297 0001277  90.2001 269.9138 15.08842984 81251,6917.871,95.437,540.62,538.853,0.0
51747.0,STARLINK-3446,PAYLOAD,2023-08-04 03:15:28,15.08834444,0.000129,53.2171,257.3938,89.0162,271.0978,2.7102e-05,1.43e-06,0.0,0 STARLINK-3446,1 51747U 22016AK  23216.13574687  .00000143  00000-0  27102-4 0  9994,2 51747  53.2171 257.3938 0001290  89.0162 271.0978 15.08834444 81497,6917.897,95.438,540.655,538.87,0.0
51747.0,STARLINK-3446,PAYLOAD,2023-08-05 03:06:15,15.08841323,0.0001296,53.2175,252.9336,98.7369,261.377,3.8691e-05,3.28e-06,0.0,0 STARLINK-3446,1 51747U 22016AK  23217.12934298  .00000328  00000-0  38691-4 0  9992,2 51747  53.2175 252.9336 0001296  98.7369 261.3770 15.08841323 81649,6917.876,95.437,540.638,538.845,0.0
51747.0,STARLINK-3446,PAYLOAD,2023-08-05 07:52:24,15.08846477,0.0001345,53.2174,252.0415,102.6867,257.4276,8.154e-05,1.01e-05,0.0,0 STARLINK-3446,1 51747U 22016AK  23217.32805795  .00001010  00000-0  81540-4 0  9993,2 51747  53.2174 252.0415 0001345 102.6867 257.4276 15.08846477 81675,6917.861,95.437,540.656,538.795,0.0
51747.0,STARLINK-3446,PAYLOAD,2023-08-06 01:21:38,15.08839946,0.0001262,53.2168,248.7704,100.9468,259.1666,0.00013275,1.825e-05,0.0,0 STARLINK-3446,1 51747U 22016AK  23218.05669999  .00001825  00000-0  13275-3 0  9991,2 51747  53.2168 248.7704 0001262 100.9468 259.1666 15.08839946 81784,6917.881,95.438,540.619,538.873,0.0
51747.0,STARLINK-3446,PAYLOAD,2023-08-06 09:18:35,15.08834676,0.0001254,53.2168,247.2832,102.4309,257.6823,7.6361e-05,9.27e-06,0.0,0 STARLINK-3446,1 51747U 22016AK  23218.38790645  .00000927  00000-0  76361-4 0  9998,2 51747  53.2168 247.2832 0001254 102.4309 257.6823 15.08834676 81831,6917.897,95.438,540.629,538.894,0.0
51747.0,STARLINK-3446,PAYLOAD,2023-08-07 18:41:41,15.08836598,0.0001045,53.2156,241.0376,92.0441,268.0671,1.5272e-05,-4.5e-07,0.0,0 STARLINK-3446,1 51747U 22016AK  23219.77895002 -.00000045  00000-0  15272-4 0  9991,2 51747  53.2156 241.0376 0001045  92.0441 268.0671 15.08836598 82048,6917.891,95.438,540.479,539.033,0.0
51747.0,STARLINK-3446,PAYLOAD,2023-08-08 10:35:32,15.08841939,0.0001087,53.2157,238.064,90.0117,270.1,0.00010868,1.442e-05,0.0,0 STARLINK-3446,1 51747U 22016AK  23220.44134511  .00001442  00000-0  10868-3 0  9994,2 51747  53.2157 238.0640 0001087  90.0117 270.1000 15.08841939 82149,6917.874,95.437,540.491,538.987,0.0
